COSMOS 2251 DEB         
1 35906U 93036AUV 17346.44870477  .00001329  00000-0  18528-3 0  9998
2 35906  74.0217 344.0946 0119731 226.9034 287.3248 14.74050189448542
